{"type": "FeatureCollection", "features": [{"type": "Feature", "properties": {"norad_id": 25730, "name": "FENGYUN 1C", "group": "fengyun-1c-debris", "lat": -63.00045018504176, "lon": 65.44946025727025, "alt_km": 818.7692958064299, "timestamp": "2025-12-07T14:37:05.475571+00:00", "meta": {"OBJECT_NAME": "FENGYUN 1C", "OBJECT_ID": "1999-025A", "EPOCH": "2025-12-06T22:04:49.017792", "MEAN_MOTION": 14.26003921, "ECCENTRICITY": 0.00108922, "INCLINATION": 98.8845, "RA_OF_ASC_NODE": 46.8728, "ARG_OF_PERICENTER": 84.0398, "MEAN_ANOMALY": 276.2023, "EPHEMERIS_TYPE": 0, "CLASSIFICATION_TYPE": "U", "NORAD_CAT_ID": 25730, "ELEMENT_SET_NO": 999, "REV_AT_EPOCH": 37054, "BSTAR": 0.0018602384, "MEAN_MOTION_DOT": 4.399e-05, "MEAN_MOTION_DDOT": 0}, "tle": {"line1": "1 25730U 99025A   25340.92001178  .00004399  00000+0  18602-2 0  9997", "line2": "2 25730  98.8845  46.8728 0010892  84.0398 276.2023 14.26003921370547"}}, "geometry": {"type": "Point", "coordinates": [65.44946025727025, -63.00045018504176]}}, {"type": "Feature", "properties": {"norad_id": 29733, "name": "FENGYUN 1C DEB", "group": "fengyun-1c-debris", "lat": 63.44551179180805, "lon": -122.57447429411702, "alt_km": 1311.9908718818906, "timestamp": "2025-12-07T14:37:05.475591+00:00", "meta": {"OBJECT_NAME": "FENGYUN 1C DEB", "OBJECT_ID": "1999-025X", "EPOCH": "2025-12-06T02:57:25.345728", "MEAN_MOTION": 12.96446211, "ECCENTRICITY": 0.05695186, "INCLINATION": 99.225, "RA_OF_ASC_NODE": 37.1902, "ARG_OF_PERICENTER": 217.1918, "MEAN_ANOMALY": 172.7643, "EPHEMERIS_TYPE": 0, "CLASSIFICATION_TYPE": "U", "NORAD_CAT_ID": 29733, "ELEMENT_SET_NO": 999, "REV_AT_EPOCH": 89034, "BSTAR": 0.002677306, "MEAN_MOTION_DOT": 1.58e-05, "MEAN_MOTION_DDOT": 0}, "tle": {"line1": "1 29733U 99025X   25340.12321002  .00001580  00000+0  26773-2 0  9994", "line2": "2 29733  99.2250  37.1902 0569518 217.1918 172.7643 12.96446211890348"}}, "geometry": {"type": "Point", "coordinates": [-122.57447429411702, 63.44551179180805]}}, {"type": "Feature", "properties": {"norad_id": 29734, "name": "FENGYUN 1C DEB", "group": "fengyun-1c-debris", "lat": 38.28167758516267, "lon": -94.97043890547441, "alt_km": 836.7603269003184, "timestamp": "2025-12-07T14:37:05.475605+00:00", "meta": {"OBJECT_NAME": "FENGYUN 1C DEB", "OBJECT_ID": "1999-025Y", "EPOCH": "2025-12-06T18:17:13.867584", "MEAN_MOTION": 12.91250453, "ECCENTRICITY": 0.06148337, "INCLINATION": 99.1702, "RA_OF_ASC_NODE": 271.6452, "ARG_OF_PERICENTER": 25.4149, "MEAN_ANOMALY": 35.8063, "EPHEMERIS_TYPE": 0, "CLASSIFICATION_TYPE": "U", "NORAD_CAT_ID": 29734, "ELEMENT_SET_NO": 999, "REV_AT_EPOCH": 88471, "BSTAR": 0.0081547898, "MEAN_MOTION_DOT": 5.035e-05, "MEAN_MOTION_DDOT": 0}, "tle": {"line1": "1 29734U 99025Y   25340.76196606  .00005035  00000+0  81548-2 0  9995", "line2": "2 29734  99.1702 271.6452 0614833  25.4149  35.8063 12.91250453884717"}}, "geometry": {"type": "Point", "coordinates": [-94.97043890547441, 38.28167758516267]}}, {"type": "Feature", "properties": {"norad_id": 29735, "name": "FENGYUN 1C DEB", "group": "fengyun-1c-debris", "lat": -77.59475406595023, "lon": 28.63114999569707, "alt_km": 1195.1829233620929, "timestamp": "2025-12-07T14:37:05.475616+00:00", "meta": {"OBJECT_NAME": "FENGYUN 1C DEB", "OBJECT_ID": "1999-025Z", "EPOCH": "2025-12-06T05:16:00.530112", "MEAN_MOTION": 12.7503354, "ECCENTRICITY": 0.06978043, "INCLINATION": 99.3907, "RA_OF_ASC_NODE": 256.2629, "ARG_OF_PERICENTER": 189.8385, "MEAN_ANOMALY": 168.842, "EPHEMERIS_TYPE": 0, "CLASSIFICATION_TYPE": "U", "NORAD_CAT_ID": 29735, "ELEMENT_SET_NO": 999, "REV_AT_EPOCH": 87332, "BSTAR": 0.0018783834, "MEAN_MOTION_DOT": 1.062e-05, "MEAN_MOTION_DDOT": 0}, "tle": {"line1": "1 29735U 99025Z   25340.21945058  .00001062  00000+0  18784-2 0  9997", "line2": "2 29735  99.3907 256.2629 0697804 189.8385 168.8420 12.75033540873325"}}, "geometry": {"type": "Point", "coordinates": [28.63114999569707, -77.59475406595023]}}, {"type": "Feature", "properties": {"norad_id": 29736, "name": "FENGYUN 1C DEB", "group": "fengyun-1c-debris", "lat": -8.862389747981926, "lon": 163.4678330497501, "alt_km": 1863.633230794766, "timestamp": "2025-12-07T14:37:05.475627+00:00", "meta": {"OBJECT_NAME": "FENGYUN 1C DEB", "OBJECT_ID": "1999-025AA", "EPOCH": "2025-12-06T01:12:22.999680", "MEAN_MOTION": 12.57471042, "ECCENTRICITY": 0.07259458, "INCLINATION": 99.4006, "RA_OF_ASC_NODE": 160.7283, "ARG_OF_PERICENTER": 213.0303, "MEAN_ANOMALY": 279.3717, "EPHEMERIS_TYPE": 0, "CLASSIFICATION_TYPE": "U", "NORAD_CAT_ID": 29736, "ELEMENT_SET_NO": 999, "REV_AT_EPOCH": 86460, "BSTAR": 0.0032621537, "MEAN_MOTION_DOT": 1.457e-05, "MEAN_MOTION_DDOT": 0}, "tle": {"line1": "1 29736U 99025AA  25340.05026620  .00001457  00000+0  32622-2 0  9990", "line2": "2 29736  99.4006 160.7283 0725945 213.0303 279.3717 12.57471042864601"}}, "geometry": {"type": "Point", "coordinates": [163.4678330497501, -8.862389747981926]}}, {"type": "Feature", "properties": {"norad_id": 29737, "name": "FENGYUN 1C DEB", "group": "fengyun-1c-debris", "lat": -64.5431029464281, "lon": -41.70083009922097, "alt_km": 1830.3605154418829, "timestamp": "2025-12-07T14:37:05.475638+00:00", "meta": {"OBJECT_NAME": "FENGYUN 1C DEB", "OBJECT_ID": "1999-025AB", "EPOCH": "2025-12-06T03:03:50.641344", "MEAN_MOTION": 12.65636144, "ECCENTRICITY": 0.06943496, "INCLINATION": 99.5811, "RA_OF_ASC_NODE": 296.2824, "ARG_OF_PERICENTER": 152.9123, "MEAN_ANOMALY": 229.3633, "EPHEMERIS_TYPE": 0, "CLASSIFICATION_TYPE": "U", "NORAD_CAT_ID": 29737, "ELEMENT_SET_NO": 999, "REV_AT_EPOCH": 86785, "BSTAR": 0.0019384767, "MEAN_MOTION_DOT": 9.09e-06, "MEAN_MOTION_DDOT": 0}, "tle": {"line1": "1 29737U 99025AB  25340.12766946  .00000909  00000+0  19385-2 0  9993", "line2": "2 29737  99.5811 296.2824 0694349 152.9123 229.3633 12.65636144867854"}}, "geometry": {"type": "Point", "coordinates": [-41.70083009922097, -64.5431029464281]}}, {"type": "Feature", "properties": {"norad_id": 29738, "name": "FENGYUN 1C DEB", "group": "fengyun-1c-debris", "lat": 50.33434892718833, "lon": 137.92905952914143, "alt_km": 1541.854315870065, "timestamp": "2025-12-07T14:37:05.475649+00:00", "meta": {"OBJECT_NAME": "FENGYUN 1C DEB", "OBJECT_ID": "1999-025AC", "EPOCH": "2025-12-06T09:47:47.434560", "MEAN_MOTION": 12.61002007, "ECCENTRICITY": 0.08638112, "INCLINATION": 99.4101, "RA_OF_ASC_NODE": 148.4827, "ARG_OF_PERICENTER": 308.1889, "MEAN_ANOMALY": 44.4388, "EPHEMERIS_TYPE": 0, "CLASSIFICATION_TYPE": "U", "NORAD_CAT_ID": 29738, "ELEMENT_SET_NO": 999, "REV_AT_EPOCH": 86137, "BSTAR": 0.0035510725, "MEAN_MOTION_DOT": 2.66e-05, "MEAN_MOTION_DDOT": 0}, "tle": {"line1": "1 29738U 99025AC  25340.40818790  .00002660  00000+0  35511-2 0  9995", "line2": "2 29738  99.4101 148.4827 0863811 308.1889  44.4388 12.61002007861378"}}, "geometry": {"type": "Point", "coordinates": [137.92905952914143, 50.33434892718833]}}, {"type": "Feature", "properties": {"norad_id": 29740, "name": "FENGYUN 1C DEB", "group": "fengyun-1c-debris", "lat": -48.60551487269524, "lon": -154.9633481121853, "alt_km": 1734.2157552619874, "timestamp": "2025-12-07T14:37:05.475660+00:00", "meta": {"OBJECT_NAME": "FENGYUN 1C DEB", "OBJECT_ID": "1999-025AE", "EPOCH": "2025-12-06T13:05:08.942496", "MEAN_MOTION": 12.08323067, "ECCENTRICITY": 0.09755905, "INCLINATION": 99.0438, "RA_OF_ASC_NODE": 193.8676, "ARG_OF_PERICENTER": 211.0861, "MEAN_ANOMALY": 142.8803, "EPHEMERIS_TYPE": 0, "CLASSIFICATION_TYPE": "U", "NORAD_CAT_ID": 29740, "ELEMENT_SET_NO": 999, "REV_AT_EPOCH": 82860, "BSTAR": -0.00064129817, "MEAN_MOTION_DOT": -2.76e-06, "MEAN_MOTION_DDOT": 0}, "tle": {"line1": "1 29740U 99025AE  25340.54524239 -.00000276  00000+0 -64130-3 0  9998", "line2": "2 29740  99.0438 193.8676 0975590 211.0861 142.8803 12.08323067828603"}}, "geometry": {"type": "Point", "coordinates": [-154.9633481121853, -48.60551487269524]}}, {"type": "Feature", "properties": {"norad_id": 29741, "name": "FENGYUN 1C DEB", "group": "fengyun-1c-debris", "lat": -59.72748423331408, "lon": -126.52664588992558, "alt_km": 2221.081837509616, "timestamp": "2025-12-07T14:37:05.475671+00:00", "meta": {"OBJECT_NAME": "FENGYUN 1C DEB", "OBJECT_ID": "1999-025AF", "EPOCH": "2025-12-06T21:34:53.203296", "MEAN_MOTION": 12.00903629, "ECCENTRICITY": 0.10238043, "INCLINATION": 99.1756, "RA_OF_ASC_NODE": 216.8916, "ARG_OF_PERICENTER": 75.377, "MEAN_ANOMALY": 44.8839, "EPHEMERIS_TYPE": 0, "CLASSIFICATION_TYPE": "U", "NORAD_CAT_ID": 29741, "ELEMENT_SET_NO": 999, "REV_AT_EPOCH": 52113, "BSTAR": 0.0065738549, "MEAN_MOTION_DOT": 2.549e-05, "MEAN_MOTION_DDOT": 0}, "tle": {"line1": "1 29741U 99025AF  25340.89922689  .00002549  00000+0  65739-2 0  9996", "line2": "2 29741  99.1756 216.8916 1023804  75.3770  44.8839 12.00903629521132"}}, "geometry": {"type": "Point", "coordinates": [-126.52664588992558, -59.72748423331408]}}, {"type": "Feature", "properties": {"norad_id": 29748, "name": "FENGYUN 1C DEB", "group": "fengyun-1c-debris", "lat": 77.90153718126794, "lon": -139.9422076754761, "alt_km": 1387.0979814909206, "timestamp": "2025-12-07T14:37:05.475682+00:00", "meta": {"OBJECT_NAME": "FENGYUN 1C DEB", "OBJECT_ID": "1999-025AN", "EPOCH": "2025-12-06T01:53:21.077088", "MEAN_MOTION": 11.89562132, "ECCENTRICITY": 0.08321495, "INCLINATION": 99.8056, "RA_OF_ASC_NODE": 272.6959, "ARG_OF_PERICENTER": 21.1067, "MEAN_ANOMALY": 342.2303, "EPHEMERIS_TYPE": 0, "CLASSIFICATION_TYPE": "U", "NORAD_CAT_ID": 29748, "ELEMENT_SET_NO": 999, "REV_AT_EPOCH": 78654, "BSTAR": 0.20398933, "MEAN_MOTION_DOT": 0.00038353, "MEAN_MOTION_DDOT": 0}, "tle": {"line1": "1 29748U 99025AN  25340.07871617  .00038353  00000+0  20399+0 0  9999", "line2": "2 29748  99.8056 272.6959 0832149  21.1067 342.2303 11.89562132786548"}}, "geometry": {"type": "Point", "coordinates": [-139.9422076754761, 77.90153718126794]}}]}